{"fetched_at":"2026-07-18T06:27:47.409Z","source":"https://celestrak.org/NORAD/elements/gp.php?GROUP=planet&FORMAT=JSON","constellation":"superdove","records":[{"OBJECT_NAME":"FLOCK 4G-23","OBJECT_ID":"2025-009AQ","EPOCH":"2026-07-17T18:29:53.686464","CLASSIFICATION_TYPE":"U","MEAN_MOTION":15.34891004,"ECCENTRICITY":0.00034578,"INCLINATION":97.3921,"RA_OF_ASC_NODE":280.466,"ARG_OF_PERICENTER":166.6749,"MEAN_ANOMALY":193.4586,"EPHEMERIS_TYPE":0,"NORAD_CAT_ID":62647,"ELEMENT_SET_NO":999,"REV_AT_EPOCH":8361,"BSTAR":0.00066877888,"MEAN_MOTION_DOT":0.00022592,"MEAN_MOTION_DDOT":0},{"OBJECT_NAME":"FLOCK 4G-34","OBJECT_ID":"2025-009AT","EPOCH":"2026-07-17T16:15:08.987904","CLASSIFICATION_TYPE":"U","MEAN_MOTION":15.29803247,"ECCENTRICITY":0.00025682,"INCLINATION":97.3957,"RA_OF_ASC_NODE":280.1151,"ARG_OF_PERICENTER":157.0989,"MEAN_ANOMALY":203.0366,"EPHEMERIS_TYPE":0,"NORAD_CAT_ID":62650,"ELEMENT_SET_NO":999,"REV_AT_EPOCH":8357,"BSTAR":0.00018449051,"MEAN_MOTION_DOT":0.00005249,"MEAN_MOTION_DDOT":0},{"OBJECT_NAME":"FLOCK 4G-21","OBJECT_ID":"2025-009AU","EPOCH":"2026-07-17T18:53:22.458336","CLASSIFICATION_TYPE":"U","MEAN_MOTION":15.32981153,"ECCENTRICITY":0.00034852,"INCLINATION":97.3983,"RA_OF_ASC_NODE":281.2407,"ARG_OF_PERICENTER":183.4911,"MEAN_ANOMALY":176.6308,"EPHEMERIS_TYPE":0,"NORAD_CAT_ID":62651,"ELEMENT_SET_NO":999,"REV_AT_EPOCH":8364,"BSTAR":0.00063788612,"MEAN_MOTION_DOT":0.00020277,"MEAN_MOTION_DDOT":0},{"OBJECT_NAME":"FLOCK 4G-31","OBJECT_ID":"2025-009AV","EPOCH":"2026-07-17T18:32:51.923616","CLASSIFICATION_TYPE":"U","MEAN_MOTION":15.29609727,"ECCENTRICITY":0.00021707,"INCLINATION":97.3963,"RA_OF_ASC_NODE":280.1816,"ARG_OF_PERICENTER":153.7124,"MEAN_ANOMALY":206.4227,"EPHEMERIS_TYPE":0,"NORAD_CAT_ID":62652,"ELEMENT_SET_NO":999,"REV_AT_EPOCH":8358,"BSTAR":0.00019530413,"MEAN_MOTION_DOT":0.00005528,"MEAN_MOTION_DDOT":0},{"OBJECT_NAME":"FLOCK 4G-4","OBJECT_ID":"2025-009BC","EPOCH":"2026-07-17T19:20:57.830496","CLASSIFICATION_TYPE":"U","MEAN_MOTION":15.32253665,"ECCENTRICITY":0.00049755,"INCLINATION":97.3937,"RA_OF_ASC_NODE":280.0362,"ARG_OF_PERICENTER":182.8459,"MEAN_ANOMALY":177.2755,"EPHEMERIS_TYPE":0,"NORAD_CAT_ID":62659,"ELEMENT_SET_NO":999,"REV_AT_EPOCH":14119,"BSTAR":0.00059452651,"MEAN_MOTION_DOT":0.00018467,"MEAN_MOTION_DDOT":0},{"OBJECT_NAME":"FLOCK 4G-6","OBJECT_ID":"2025-009BD","EPOCH":"2026-07-17T22:58:50.941056","CLASSIFICATION_TYPE":"U","MEAN_MOTION":15.30005124,"ECCENTRICITY":0.00031895,"INCLINATION":97.3935,"RA_OF_ASC_NODE":280.2182,"ARG_OF_PERICENTER":190.6171,"MEAN_ANOMALY":169.5003,"EPHEMERIS_TYPE":0,"NORAD_CAT_ID":62660,"ELEMENT_SET_NO":999,"REV_AT_EPOCH":14120,"BSTAR":0.00017344331,"MEAN_MOTION_DOT":0.00004961,"MEAN_MOTION_DDOT":0},{"OBJECT_NAME":"FLOCK 4G-2","OBJECT_ID":"2025-009BE","EPOCH":"2026-07-17T11:49:37.183008","CLASSIFICATION_TYPE":"U","MEAN_MOTION":15.30355064,"ECCENTRICITY":0.0003977,"INCLINATION":97.4004,"RA_OF_ASC_NODE":280.4004,"ARG_OF_PERICENTER":192.7743,"MEAN_ANOMALY":167.3398,"EPHEMERIS_TYPE":0,"NORAD_CAT_ID":62661,"ELEMENT_SET_NO":999,"REV_AT_EPOCH":14116,"BSTAR":0.00019516,"MEAN_MOTION_DOT":0.00005653,"MEAN_MOTION_DDOT":0},{"OBJECT_NAME":"FLOCK 4G-5","OBJECT_ID":"2025-009BG","EPOCH":"2026-07-17T11:41:03.039072","CLASSIFICATION_TYPE":"U","MEAN_MOTION":15.30929535,"ECCENTRICITY":0.0003708,"INCLINATION":97.4021,"RA_OF_ASC_NODE":280.7975,"ARG_OF_PERICENTER":174.5948,"MEAN_ANOMALY":185.5334,"EPHEMERIS_TYPE":0,"NORAD_CAT_ID":62663,"ELEMENT_SET_NO":999,"REV_AT_EPOCH":8357,"BSTAR":0.0001688,"MEAN_MOTION_DOT":0.00004967,"MEAN_MOTION_DDOT":0},{"OBJECT_NAME":"FLOCK 4G-1","OBJECT_ID":"2025-009BK","EPOCH":"2026-07-17T19:18:59.391648","CLASSIFICATION_TYPE":"U","MEAN_MOTION":15.30217859,"ECCENTRICITY":0.00043026,"INCLINATION":97.4015,"RA_OF_ASC_NODE":280.6907,"ARG_OF_PERICENTER":189.3842,"MEAN_ANOMALY":170.7319,"EPHEMERIS_TYPE":0,"NORAD_CAT_ID":62666,"ELEMENT_SET_NO":999,"REV_AT_EPOCH":8359,"BSTAR":0.00018559645,"MEAN_MOTION_DOT":0.0000535,"MEAN_MOTION_DDOT":0},{"OBJECT_NAME":"FLOCK 4G-14","OBJECT_ID":"2025-009BL","EPOCH":"2026-07-17T18:30:41.992704","CLASSIFICATION_TYPE":"U","MEAN_MOTION":15.2976598,"ECCENTRICITY":0.00044885,"INCLINATION":97.4019,"RA_OF_ASC_NODE":280.4521,"ARG_OF_PERICENTER":184.652,"MEAN_ANOMALY":175.468,"EPHEMERIS_TYPE":0,"NORAD_CAT_ID":62667,"ELEMENT_SET_NO":999,"REV_AT_EPOCH":8357,"BSTAR":0.00020384836,"MEAN_MOTION_DOT":0.00005802,"MEAN_MOTION_DDOT":0},{"OBJECT_NAME":"FLOCK 4G-10","OBJECT_ID":"2025-009BP","EPOCH":"2026-07-17T18:46:10.083360","CLASSIFICATION_TYPE":"U","MEAN_MOTION":15.29867386,"ECCENTRICITY":0.00039664,"INCLINATION":97.3919,"RA_OF_ASC_NODE":279.7576,"ARG_OF_PERICENTER":202.1942,"MEAN_ANOMALY":157.9127,"EPHEMERIS_TYPE":0,"NORAD_CAT_ID":62670,"ELEMENT_SET_NO":999,"REV_AT_EPOCH":14121,"BSTAR":0.00019551319,"MEAN_MOTION_DOT":0.00005579,"MEAN_MOTION_DDOT":0},{"OBJECT_NAME":"FLOCK 4G-36","OBJECT_ID":"2025-009BU","EPOCH":"2026-07-17T18:38:20.922720","CLASSIFICATION_TYPE":"U","MEAN_MOTION":15.29842982,"ECCENTRICITY":0.00046245,"INCLINATION":97.4008,"RA_OF_ASC_NODE":280.3789,"ARG_OF_PERICENTER":190.2573,"MEAN_ANOMALY":169.8574,"EPHEMERIS_TYPE":0,"NORAD_CAT_ID":62675,"ELEMENT_SET_NO":999,"REV_AT_EPOCH":8357,"BSTAR":0.00020959766,"MEAN_MOTION_DOT":0.00005982,"MEAN_MOTION_DDOT":0},{"OBJECT_NAME":"FLOCK 4G-15","OBJECT_ID":"2025-009BX","EPOCH":"2026-07-17T18:48:06.825312","CLASSIFICATION_TYPE":"U","MEAN_MOTION":15.29932749,"ECCENTRICITY":0.00048516,"INCLINATION":97.401,"RA_OF_ASC_NODE":280.5289,"ARG_OF_PERICENTER":187.2726,"MEAN_ANOMALY":172.8445,"EPHEMERIS_TYPE":0,"NORAD_CAT_ID":62678,"ELEMENT_SET_NO":999,"REV_AT_EPOCH":14122,"BSTAR":0.00020290791,"MEAN_MOTION_DOT":0.00005805,"MEAN_MOTION_DDOT":0},{"OBJECT_NAME":"FLOCK 4G-30","OBJECT_ID":"2025-009BY","EPOCH":"2026-07-17T11:00:54.232992","CLASSIFICATION_TYPE":"U","MEAN_MOTION":15.3405552,"ECCENTRICITY":0.0004601,"INCLINATION":97.3911,"RA_OF_ASC_NODE":279.7391,"ARG_OF_PERICENTER":190.0859,"MEAN_ANOMALY":170.0293,"EPHEMERIS_TYPE":0,"NORAD_CAT_ID":62679,"ELEMENT_SET_NO":999,"REV_AT_EPOCH":14118,"BSTAR":0.00065439,"MEAN_MOTION_DOT":0.00021527,"MEAN_MOTION_DDOT":0},{"OBJECT_NAME":"FLOCK 4G-18","OBJECT_ID":"2025-009BZ","EPOCH":"2026-07-17T19:15:31.691232","CLASSIFICATION_TYPE":"U","MEAN_MOTION":15.32314817,"ECCENTRICITY":0.00064364,"INCLINATION":97.4003,"RA_OF_ASC_NODE":280.4745,"ARG_OF_PERICENTER":201.74,"MEAN_ANOMALY":158.357,"EPHEMERIS_TYPE":0,"NORAD_CAT_ID":62680,"ELEMENT_SET_NO":999,"REV_AT_EPOCH":14122,"BSTAR":0.00062100168,"MEAN_MOTION_DOT":0.00019336,"MEAN_MOTION_DDOT":0},{"OBJECT_NAME":"FLOCK 4G-17","OBJECT_ID":"2025-009CA","EPOCH":"2026-07-17T11:34:48.659232","CLASSIFICATION_TYPE":"U","MEAN_MOTION":15.30110616,"ECCENTRICITY":0.0004333,"INCLINATION":97.3915,"RA_OF_ASC_NODE":279.6977,"ARG_OF_PERICENTER":204.3569,"MEAN_ANOMALY":155.7468,"EPHEMERIS_TYPE":0,"NORAD_CAT_ID":62681,"ELEMENT_SET_NO":999,"REV_AT_EPOCH":14118,"BSTAR":0.00019843,"MEAN_MOTION_DOT":0.00005706,"MEAN_MOTION_DDOT":0}]}
