FLOCK 4G-23             
1 62647U 25009AQ  26198.77076026  .00022592  00000+0  66878-3 0  9999
2 62647  97.3921 280.4660 0003457 166.6749 193.4586 15.34891004 83611
FLOCK 4G-34             
1 62650U 25009AT  26198.67718736  .00005249  00000+0  18449-3 0  9994
2 62650  97.3957 280.1151 0002568 157.0989 203.0366 15.29803247 83573
FLOCK 4G-21             
1 62651U 25009AU  26198.78706549  .00020277  00000+0  63789-3 0  9991
2 62651  97.3983 281.2407 0003485 183.4911 176.6308 15.32981153 83642
FLOCK 4G-31             
1 62652U 25009AV  26198.77282319  .00005528  00000+0  19530-3 0  9992
2 62652  97.3963 280.1816 0002170 153.7124 206.4227 15.29609727 83584
FLOCK 4G-4              
1 62659U 25009BC  26198.80622489  .00018467  00000+0  59453-3 0  9993
2 62659  97.3937 280.0362 0004975 182.8459 177.2755 15.32253665141199
FLOCK 4G-6              
1 62660U 25009BD  26198.95753404  .00004961  00000+0  17344-3 0  9990
2 62660  97.3935 280.2182 0003189 190.6171 169.5003 15.30005124141200
FLOCK 4G-2              
1 62661U 25009BE  26198.49279147  .00005653  00000+0  19516-3 0  9999
2 62661  97.4004 280.4004 0003977 192.7743 167.3398 15.30355064141166
FLOCK 4G-5              
1 62663U 25009BG  26198.48684073  .00004967  00000+0  16880-3 0  9996
2 62663  97.4021 280.7975 0003708 174.5948 185.5334 15.30929535 83576
FLOCK 4G-1              
1 62666U 25009BK  26198.80485407  .00005350  00000+0  18560-3 0  9999
2 62666  97.4015 280.6907 0004302 189.3842 170.7319 15.30217859 83594
FLOCK 4G-14             
1 62667U 25009BL  26198.77131936  .00005802  00000+0  20385-3 0  9991
2 62667  97.4019 280.4521 0004488 184.6520 175.4680 15.29765980 83577
FLOCK 4G-10             
1 62670U 25009BP  26198.78206115  .00005579  00000+0  19551-3 0  9992
2 62670  97.3919 279.7576 0003966 202.1942 157.9127 15.29867386141214
FLOCK 4G-36             
1 62675U 25009BU  26198.77663105  .00005982  00000+0  20960-3 0  9996
2 62675  97.4008 280.3789 0004624 190.2573 169.8574 15.29842982 83579
FLOCK 4G-15             
1 62678U 25009BX  26198.78341233  .00005805  00000+0  20291-3 0  9996
2 62678  97.4010 280.5289 0004851 187.2726 172.8445 15.29932749141229
FLOCK 4G-30             
1 62679U 25009BY  26198.45896103  .00021527  00000+0  65439-3 0  9994
2 62679  97.3911 279.7391 0004601 190.0859 170.0293 15.34055520141180
FLOCK 4G-18             
1 62680U 25009BZ  26198.80245013  .00019336  00000+0  62100-3 0  9990
2 62680  97.4003 280.4745 0006436 201.7400 158.3570 15.32314817141224
FLOCK 4G-17             
1 62681U 25009CA  26198.48250763  .00005706  00000+0  19843-3 0  9995
2 62681  97.3915 279.6977 0004333 204.3569 155.7468 15.30110616141183
